ZHUHAI-1 01 (CAS-4A)    
1 42761U 17034D   25144.78619047  .00053182  00000+0  57696-3 0  9997
2 42761  43.0120  53.1924 0020920 190.1974 169.8468 15.62437070440151
CARTOSAT-2E             
1 42767U 17036C   25144.84047180  .00004546  00000+0  21931-3 0  9998
2 42767  97.4797 204.6738 0002996 194.4778 165.6371 15.19187179439180
FORMOSAT-5              
1 42920U 17049A   25144.57639786  .00000181  00000+0  57080-4 0  9998
2 42920  98.2590 222.7179 0010938 186.0610 174.0455 14.50869039410326
SENTINEL-5P             
1 42969U 17064A   25144.54408904  .00000000  00000+0  20865-4 0  9992
2 42969  98.7579  85.2110 0000947  85.1543 274.9741 14.19522446394424
SKYSAT-C11              
1 42987U 17068A   25144.34352865  .00011149  00000+0  29060-3 0  9999
2 42987  97.3908 278.6973 0001455 118.3418 241.7974 15.39020222423112
SKYSAT-C10              
1 42988U 17068B   25144.32093211  .00008034  00000+0  26786-3 0  9996
2 42988  97.4020 275.1120 0002802  65.5104 294.6429 15.31349071422813
SKYSAT-C9               
1 42989U 17068C   25144.40495152  .00010214  00000+0  30904-3 0  9996
2 42989  97.3952 273.8978 0013012 104.4079 255.8609 15.34305669423056
SKYSAT-C8               
1 42990U 17068D   25144.81977265  .00008399  00000+0  27718-3 0  9993
2 42990  97.4043 274.5284 0002271 108.4819 251.6669 15.31666264422797
SKYSAT-C7               
1 42991U 17068E   25144.34735018  .00008510  00000+0  27753-3 0  9994
2 42991  97.4045 275.1773 0005968  85.7328 274.4596 15.32032651422798
SKYSAT-C6               
1 42992U 17068F   25144.35424543  .00007700  00000+0  26827-3 0  9995
2 42992  97.4081 275.9227 0004990  63.2236 296.9515 15.29929630422804
CARTOSAT-2F             
1 43111U 18004A   25144.80913166  .00004068  32212-8  19302-3 0  9997
2 43111  97.4556 205.3266 0002745 149.3293 210.8103 15.19314825387115
GAOFEN-1 02             
1 43259U 18031A   25144.84563959  .00000748  00000+0  11409-3 0  9997
2 43259  97.7733 206.7368 0005780 152.7114 207.4401 14.76598281385391
GAOFEN-1 03             
1 43260U 18031B   25144.82381570  .00000734  00000+0  11201-3 0  9999
2 43260  97.7728 206.6112 0005389 186.7410 173.3729 14.76614998385381
GAOFEN-1 04             
1 43262U 18031D   25144.86733151  .00000736  00000+0  11241-3 0  9997
2 43262  97.7737 206.7974 0002141 154.3411 205.7905 14.76605564385380
