[
  {
    "OBJECT_NAME": "ZHUHAI-1 01 (CAS-4A)",
    "OBJECT_ID": "2017-034D",
    "EPOCH": "2025-05-24T18:52:06.856608",
    "MEAN_MOTION": 15.6243707,
    "ECCENTRICITY": 0.002092,
    "INCLINATION": 43.012,
    "RA_OF_ASC_NODE": 53.1924,
    "ARG_OF_PERICENTER": 190.1974,
    "MEAN_ANOMALY": 169.8468,
    "EPHEMERIS_TYPE": 0,
    "CLASSIFICATION_TYPE": "U",
    "NORAD_CAT_ID": 42761,
    "ELEMENT_SET_NO": 999,
    "REV_AT_EPOCH": 44015,
    "BSTAR": 0.00057696,
    "MEAN_MOTION_DOT": 0.00053182,
    "MEAN_MOTION_DDOT": 0
  },
  {
    "OBJECT_NAME": "CARTOSAT-2E",
    "OBJECT_ID": "2017-036C",
    "EPOCH": "2025-05-24T20:10:16.763520",
    "MEAN_MOTION": 15.19187179,
    "ECCENTRICITY": 0.0002996,
    "INCLINATION": 97.4797,
    "RA_OF_ASC_NODE": 204.6738,
    "ARG_OF_PERICENTER": 194.4778,
    "MEAN_ANOMALY": 165.6371,
    "EPHEMERIS_TYPE": 0,
    "CLASSIFICATION_TYPE": "U",
    "NORAD_CAT_ID": 42767,
    "ELEMENT_SET_NO": 999,
    "REV_AT_EPOCH": 43918,
    "BSTAR": 0.00021931,
    "MEAN_MOTION_DOT": 4.546e-05,
    "MEAN_MOTION_DDOT": 0
  },
  {
    "OBJECT_NAME": "FORMOSAT-5",
    "OBJECT_ID": "2017-049A",
    "EPOCH": "2025-05-24T13:50:00.775104",
    "MEAN_MOTION": 14.50869039,
    "ECCENTRICITY": 0.0010938,
    "INCLINATION": 98.259,
    "RA_OF_ASC_NODE": 222.7179,
    "ARG_OF_PERICENTER": 186.061,
    "MEAN_ANOMALY": 174.0455,
    "EPHEMERIS_TYPE": 0,
    "CLASSIFICATION_TYPE": "U",
    "NORAD_CAT_ID": 42920,
    "ELEMENT_SET_NO": 999,
    "REV_AT_EPOCH": 41032,
    "BSTAR": 5.708e-05,
    "MEAN_MOTION_DOT": 1.81e-06,
    "MEAN_MOTION_DDOT": 0
  },
  {
    "OBJECT_NAME": "SENTINEL-5P",
    "OBJECT_ID": "2017-064A",
    "EPOCH": "2025-05-24T13:03:29.293056",
    "MEAN_MOTION": 14.19522446,
    "ECCENTRICITY": 9.47e-05,
    "INCLINATION": 98.7579,
    "RA_OF_ASC_NODE": 85.211,
    "ARG_OF_PERICENTER": 85.1543,
    "MEAN_ANOMALY": 274.9741,
    "EPHEMERIS_TYPE": 0,
    "CLASSIFICATION_TYPE": "U",
    "NORAD_CAT_ID": 42969,
    "ELEMENT_SET_NO": 999,
    "REV_AT_EPOCH": 39442,
    "BSTAR": 2.0865e-05,
    "MEAN_MOTION_DOT": 0,
    "MEAN_MOTION_DDOT": 0
  },
  {
    "OBJECT_NAME": "SKYSAT-C11",
    "OBJECT_ID": "2017-068A",
    "EPOCH": "2025-05-24T08:14:40.875360",
    "MEAN_MOTION": 15.39020222,
    "ECCENTRICITY": 0.0001455,
    "INCLINATION": 97.3908,
    "RA_OF_ASC_NODE": 278.6973,
    "ARG_OF_PERICENTER": 118.3418,
    "MEAN_ANOMALY": 241.7974,
    "EPHEMERIS_TYPE": 0,
    "CLASSIFICATION_TYPE": "U",
    "NORAD_CAT_ID": 42987,
    "ELEMENT_SET_NO": 999,
    "REV_AT_EPOCH": 42311,
    "BSTAR": 0.0002906,
    "MEAN_MOTION_DOT": 0.00011149,
    "MEAN_MOTION_DDOT": 0
  },
  {
    "OBJECT_NAME": "SKYSAT-C10",
    "OBJECT_ID": "2017-068B",
    "EPOCH": "2025-05-24T07:42:08.534304",
    "MEAN_MOTION": 15.31349071,
    "ECCENTRICITY": 0.0002802,
    "INCLINATION": 97.402,
    "RA_OF_ASC_NODE": 275.112,
    "ARG_OF_PERICENTER": 65.5104,
    "MEAN_ANOMALY": 294.6429,
    "EPHEMERIS_TYPE": 0,
    "CLASSIFICATION_TYPE": "U",
    "NORAD_CAT_ID": 42988,
    "ELEMENT_SET_NO": 999,
    "REV_AT_EPOCH": 42281,
    "BSTAR": 0.00026786,
    "MEAN_MOTION_DOT": 8.034e-05,
    "MEAN_MOTION_DDOT": 0
  },
  {
    "OBJECT_NAME": "SKYSAT-C9",
    "OBJECT_ID": "2017-068C",
    "EPOCH": "2025-05-24T09:43:07.811328",
    "MEAN_MOTION": 15.34305669,
    "ECCENTRICITY": 0.0013012,
    "INCLINATION": 97.3952,
    "RA_OF_ASC_NODE": 273.8978,
    "ARG_OF_PERICENTER": 104.4079,
    "MEAN_ANOMALY": 255.8609,
    "EPHEMERIS_TYPE": 0,
    "CLASSIFICATION_TYPE": "U",
    "NORAD_CAT_ID": 42989,
    "ELEMENT_SET_NO": 999,
    "REV_AT_EPOCH": 42305,
    "BSTAR": 0.00030904,
    "MEAN_MOTION_DOT": 0.00010214,
    "MEAN_MOTION_DDOT": 0
  },
  {
    "OBJECT_NAME": "SKYSAT-C8",
    "OBJECT_ID": "2017-068D",
    "EPOCH": "2025-05-24T19:40:28.356960",
    "MEAN_MOTION": 15.31666264,
    "ECCENTRICITY": 0.0002271,
    "INCLINATION": 97.4043,
    "RA_OF_ASC_NODE": 274.5284,
    "ARG_OF_PERICENTER": 108.4819,
    "MEAN_ANOMALY": 251.6669,
    "EPHEMERIS_TYPE": 0,
    "CLASSIFICATION_TYPE": "U",
    "NORAD_CAT_ID": 42990,
    "ELEMENT_SET_NO": 999,
    "REV_AT_EPOCH": 42279,
    "BSTAR": 0.00027718,
    "MEAN_MOTION_DOT": 8.399e-05,
    "MEAN_MOTION_DDOT": 0
  },
  {
    "OBJECT_NAME": "SKYSAT-C7",
    "OBJECT_ID": "2017-068E",
    "EPOCH": "2025-05-24T08:20:11.055552",
    "MEAN_MOTION": 15.32032651,
    "ECCENTRICITY": 0.0005968,
    "INCLINATION": 97.4045,
    "RA_OF_ASC_NODE": 275.1773,
    "ARG_OF_PERICENTER": 85.7328,
    "MEAN_ANOMALY": 274.4596,
    "EPHEMERIS_TYPE": 0,
    "CLASSIFICATION_TYPE": "U",
    "NORAD_CAT_ID": 42991,
    "ELEMENT_SET_NO": 999,
    "REV_AT_EPOCH": 42279,
    "BSTAR": 0.00027753,
    "MEAN_MOTION_DOT": 8.51e-05,
    "MEAN_MOTION_DDOT": 0
  },
  {
    "OBJECT_NAME": "SKYSAT-C6",
    "OBJECT_ID": "2017-068F",
    "EPOCH": "2025-05-24T08:30:06.805152",
    "MEAN_MOTION": 15.2992963,
    "ECCENTRICITY": 0.000499,
    "INCLINATION": 97.4081,
    "RA_OF_ASC_NODE": 275.9227,
    "ARG_OF_PERICENTER": 63.2236,
    "MEAN_ANOMALY": 296.9515,
    "EPHEMERIS_TYPE": 0,
    "CLASSIFICATION_TYPE": "U",
    "NORAD_CAT_ID": 42992,
    "ELEMENT_SET_NO": 999,
    "REV_AT_EPOCH": 42280,
    "BSTAR": 0.00026827,
    "MEAN_MOTION_DOT": 7.7e-05,
    "MEAN_MOTION_DDOT": 0
  },
  {
    "OBJECT_NAME": "CARTOSAT-2F",
    "OBJECT_ID": "2018-004A",
    "EPOCH": "2025-05-24T19:25:08.975424",
    "MEAN_MOTION": 15.19314825,
    "ECCENTRICITY": 0.0002745,
    "INCLINATION": 97.4556,
    "RA_OF_ASC_NODE": 205.3266,
    "ARG_OF_PERICENTER": 149.3293,
    "MEAN_ANOMALY": 210.8103,
    "EPHEMERIS_TYPE": 0,
    "CLASSIFICATION_TYPE": "U",
    "NORAD_CAT_ID": 43111,
    "ELEMENT_SET_NO": 999,
    "REV_AT_EPOCH": 38711,
    "BSTAR": 0.00019302,
    "MEAN_MOTION_DOT": 4.068e-05,
    "MEAN_MOTION_DDOT": 3.2212e-09
  },
  {
    "OBJECT_NAME": "GAOFEN-1 02",
    "OBJECT_ID": "2018-031A",
    "EPOCH": "2025-05-24T20:17:43.260576",
    "MEAN_MOTION": 14.76598281,
    "ECCENTRICITY": 0.000578,
    "INCLINATION": 97.7733,
    "RA_OF_ASC_NODE": 206.7368,
    "ARG_OF_PERICENTER": 152.7114,
    "MEAN_ANOMALY": 207.4401,
    "EPHEMERIS_TYPE": 0,
    "CLASSIFICATION_TYPE": "U",
    "NORAD_CAT_ID": 43259,
    "ELEMENT_SET_NO": 999,
    "REV_AT_EPOCH": 38539,
    "BSTAR": 0.00011409,
    "MEAN_MOTION_DOT": 7.48e-06,
    "MEAN_MOTION_DDOT": 0
  },
  {
    "OBJECT_NAME": "GAOFEN-1 03",
    "OBJECT_ID": "2018-031B",
    "EPOCH": "2025-05-24T19:46:17.676480",
    "MEAN_MOTION": 14.76614998,
    "ECCENTRICITY": 0.0005389,
    "INCLINATION": 97.7728,
    "RA_OF_ASC_NODE": 206.6112,
    "ARG_OF_PERICENTER": 186.741,
    "MEAN_ANOMALY": 173.3729,
    "EPHEMERIS_TYPE": 0,
    "CLASSIFICATION_TYPE": "U",
    "NORAD_CAT_ID": 43260,
    "ELEMENT_SET_NO": 999,
    "REV_AT_EPOCH": 38538,
    "BSTAR": 0.00011201,
    "MEAN_MOTION_DOT": 7.34e-06,
    "MEAN_MOTION_DDOT": 0
  },
  {
    "OBJECT_NAME": "GAOFEN-1 04",
    "OBJECT_ID": "2018-031D",
    "EPOCH": "2025-05-24T20:48:57.442464",
    "MEAN_MOTION": 14.76605564,
    "ECCENTRICITY": 0.0002141,
    "INCLINATION": 97.7737,
    "RA_OF_ASC_NODE": 206.7974,
    "ARG_OF_PERICENTER": 154.3411,
    "MEAN_ANOMALY": 205.7905,
    "EPHEMERIS_TYPE": 0,
    "CLASSIFICATION_TYPE": "U",
    "NORAD_CAT_ID": 43262,
    "ELEMENT_SET_NO": 999,
    "REV_AT_EPOCH": 38538,
    "BSTAR": 0.00011241,
    "MEAN_MOTION_DOT": 7.36e-06,
    "MEAN_MOTION_DDOT": 0
  }
]